{
  "type": "FeatureCollection",
  "name": "ng_pipelines",
  "crs": {
    "type": "name",
    "properties": {
      "name": "urn:ogc:def:crs:OGC:1.3:CRS84"
    }
  },
  "features": [
    {
      "type": "Feature",
      "properties": {
        "id": "PL-001",
        "name": "Escravos-Lagos Pipeline System (ELPS)",
        "commodity": "gas",
        "operator": "NNPC / NGMC",
        "row_m": 15
      },
      "geometry": {
        "type": "LineString",
        "coordinates": [
          [
            5.2,
            5.583
          ],
          [
            5.5,
            5.55
          ],
          [
            5.75,
            5.533
          ],
          [
            5.65,
            5.9
          ],
          [
            5.58,
            6.25
          ],
          [
            5.2,
            6.5
          ],
          [
            4.875,
            6.745
          ],
          [
            4.2,
            6.8
          ],
          [
            3.65,
            6.84
          ],
          [
            3.55,
            6.58
          ],
          [
            3.38,
            6.62
          ],
          [
            3.28,
            6.675
          ]
        ]
      }
    },
    {
      "type": "Feature",
      "properties": {
        "id": "PL-002",
        "name": "Ajaokuta-Kaduna-Kano (AKK) Gas Pipeline",
        "commodity": "gas",
        "operator": "NNPC",
        "row_m": 15
      },
      "geometry": {
        "type": "LineString",
        "coordinates": [
          [
            6.65,
            7.55
          ],
          [
            6.8,
            8.0
          ],
          [
            6.95,
            8.475
          ],
          [
            7.08,
            8.95
          ],
          [
            7.18,
            9.18
          ],
          [
            7.3,
            9.8
          ],
          [
            7.42,
            10.45
          ],
          [
            7.72,
            11.08
          ],
          [
            8.5,
            11.9
          ]
        ]
      }
    },
    {
      "type": "Feature",
      "properties": {
        "id": "PL-003",
        "name": "NNPC System 2B (Atlas Cove - Mosimi - Ibadan - Ilorin)",
        "commodity": "refined_petroleum",
        "operator": "NPSC / NNPC",
        "row_m": 15
      },
      "geometry": {
        "type": "LineString",
        "coordinates": [
          [
            3.383,
            6.417
          ],
          [
            3.35,
            6.52
          ],
          [
            3.45,
            6.68
          ],
          [
            3.62,
            6.82
          ],
          [
            3.75,
            7.1
          ],
          [
            3.84,
            7.38
          ],
          [
            4.15,
            7.9
          ],
          [
            4.54,
            8.48
          ]
        ]
      }
    },
    {
      "type": "Feature",
      "properties": {
        "id": "PL-004",
        "name": "NNPC System 2B (Mosimi - Ore - Benin)",
        "commodity": "refined_petroleum",
        "operator": "NPSC / NNPC",
        "row_m": 15
      },
      "geometry": {
        "type": "LineString",
        "coordinates": [
          [
            3.62,
            6.82
          ],
          [
            4.2,
            6.78
          ],
          [
            4.87,
            6.74
          ],
          [
            5.25,
            6.55
          ],
          [
            5.61,
            6.32
          ]
        ]
      }
    },
    {
      "type": "Feature",
      "properties": {
        "id": "PL-005",
        "name": "Trans-Niger Pipeline (TNP)",
        "commodity": "crude_oil",
        "operator": "SPDC / NNPC",
        "row_m": 15
      },
      "geometry": {
        "type": "LineString",
        "coordinates": [
          [
            7.167,
            4.433
          ],
          [
            7.1,
            4.6
          ],
          [
            7.01,
            4.78
          ],
          [
            6.85,
            4.95
          ],
          [
            6.65,
            5.15
          ]
        ]
      }
    }
  ]
}