{
  "type": "FeatureCollection",
  "name": "ng_transmission_lines",
  "crs": {
    "type": "name",
    "properties": {
      "name": "urn:ogc:def:crs:OGC:1.3:CRS84"
    }
  },
  "features": [
    {
      "type": "Feature",
      "properties": {
        "id": "TL-001",
        "name": "Egbin - Ikeja West 330kV",
        "voltage": "330kV",
        "operator": "TCN",
        "row_m": 15
      },
      "geometry": {
        "type": "LineString",
        "coordinates": [
          [
            3.611,
            6.561
          ],
          [
            3.56,
            6.585
          ],
          [
            3.508,
            6.615
          ],
          [
            3.42,
            6.62
          ],
          [
            3.35,
            6.618
          ],
          [
            3.3,
            6.61
          ],
          [
            3.255,
            6.602
          ]
        ]
      }
    },
    {
      "type": "Feature",
      "properties": {
        "id": "TL-002",
        "name": "Ikeja West - Akowonjo - Alausa 132kV",
        "voltage": "132kV",
        "operator": "TCN",
        "row_m": 15
      },
      "geometry": {
        "type": "LineString",
        "coordinates": [
          [
            3.255,
            6.602
          ],
          [
            3.28,
            6.605
          ],
          [
            3.305,
            6.608
          ],
          [
            3.33,
            6.615
          ],
          [
            3.357,
            6.623
          ]
        ]
      }
    },
    {
      "type": "Feature",
      "properties": {
        "id": "TL-003",
        "name": "Egbin - Ajah (Aja) 330kV",
        "voltage": "330kV",
        "operator": "TCN",
        "row_m": 15
      },
      "geometry": {
        "type": "LineString",
        "coordinates": [
          [
            3.611,
            6.561
          ],
          [
            3.595,
            6.51
          ],
          [
            3.57,
            6.467
          ]
        ]
      }
    },
    {
      "type": "Feature",
      "properties": {
        "id": "TL-004",
        "name": "Ajah - Lekki Epe Corridor 132kV",
        "voltage": "132kV",
        "operator": "TCN",
        "row_m": 15
      },
      "geometry": {
        "type": "LineString",
        "coordinates": [
          [
            3.57,
            6.467
          ],
          [
            3.65,
            6.455
          ],
          [
            3.75,
            6.44
          ],
          [
            3.85,
            6.43
          ],
          [
            3.95,
            6.42
          ]
        ]
      }
    },
    {
      "type": "Feature",
      "properties": {
        "id": "TL-005",
        "name": "Ikeja West - Ayede 330kV",
        "voltage": "330kV",
        "operator": "TCN",
        "row_m": 15
      },
      "geometry": {
        "type": "LineString",
        "coordinates": [
          [
            3.255,
            6.602
          ],
          [
            3.31,
            6.75
          ],
          [
            3.45,
            6.95
          ],
          [
            3.65,
            7.15
          ],
          [
            3.865,
            7.362
          ]
        ]
      }
    },
    {
      "type": "Feature",
      "properties": {
        "id": "TL-006",
        "name": "Ikeja West - Sakete 330kV",
        "voltage": "330kV",
        "operator": "TCN",
        "row_m": 15
      },
      "geometry": {
        "type": "LineString",
        "coordinates": [
          [
            3.255,
            6.602
          ],
          [
            3.15,
            6.55
          ],
          [
            3.0,
            6.5
          ],
          [
            2.88,
            6.425
          ],
          [
            2.68,
            6.55
          ]
        ]
      }
    },
    {
      "type": "Feature",
      "properties": {
        "id": "TL-007",
        "name": "Ayede - Oshogbo 330kV",
        "voltage": "330kV",
        "operator": "TCN",
        "row_m": 15
      },
      "geometry": {
        "type": "LineString",
        "coordinates": [
          [
            3.865,
            7.362
          ],
          [
            4.05,
            7.45
          ],
          [
            4.25,
            7.6
          ],
          [
            4.542,
            7.785
          ]
        ]
      }
    },
    {
      "type": "Feature",
      "properties": {
        "id": "TL-008",
        "name": "Oshogbo - Jebba 330kV",
        "voltage": "330kV",
        "operator": "TCN",
        "row_m": 15
      },
      "geometry": {
        "type": "LineString",
        "coordinates": [
          [
            4.542,
            7.785
          ],
          [
            4.6,
            8.15
          ],
          [
            4.7,
            8.65
          ],
          [
            4.817,
            9.133
          ]
        ]
      }
    },
    {
      "type": "Feature",
      "properties": {
        "id": "TL-009",
        "name": "Jebba - Shiroro 330kV",
        "voltage": "330kV",
        "operator": "TCN",
        "row_m": 15
      },
      "geometry": {
        "type": "LineString",
        "coordinates": [
          [
            4.817,
            9.133
          ],
          [
            5.5,
            9.4
          ],
          [
            6.2,
            9.7
          ],
          [
            6.833,
            9.975
          ]
        ]
      }
    },
    {
      "type": "Feature",
      "properties": {
        "id": "TL-010",
        "name": "Shiroro - Katampe (Abuja) 330kV",
        "voltage": "330kV",
        "operator": "TCN",
        "row_m": 15
      },
      "geometry": {
        "type": "LineString",
        "coordinates": [
          [
            6.833,
            9.975
          ],
          [
            7.05,
            9.6
          ],
          [
            7.25,
            9.3
          ],
          [
            7.432,
            9.102
          ]
        ]
      }
    },
    {
      "type": "Feature",
      "properties": {
        "id": "TL-011",
        "name": "Katampe - Gwagwalada 330kV",
        "voltage": "330kV",
        "operator": "TCN",
        "row_m": 15
      },
      "geometry": {
        "type": "LineString",
        "coordinates": [
          [
            7.432,
            9.102
          ],
          [
            7.25,
            9.02
          ],
          [
            7.085,
            8.943
          ]
        ]
      }
    },
    {
      "type": "Feature",
      "properties": {
        "id": "TL-012",
        "name": "Shiroro - Kaduna 330kV",
        "voltage": "330kV",
        "operator": "TCN",
        "row_m": 15
      },
      "geometry": {
        "type": "LineString",
        "coordinates": [
          [
            6.833,
            9.975
          ],
          [
            7.05,
            10.2
          ],
          [
            7.438,
            10.517
          ]
        ]
      }
    },
    {
      "type": "Feature",
      "properties": {
        "id": "TL-013",
        "name": "Kaduna - Kano 330kV",
        "voltage": "330kV",
        "operator": "TCN",
        "row_m": 15
      },
      "geometry": {
        "type": "LineString",
        "coordinates": [
          [
            7.438,
            10.517
          ],
          [
            7.72,
            11.08
          ],
          [
            8.1,
            11.5
          ],
          [
            8.517,
            11.917
          ]
        ]
      }
    },
    {
      "type": "Feature",
      "properties": {
        "id": "TL-014",
        "name": "Benin - Oshogbo 330kV",
        "voltage": "330kV",
        "operator": "TCN",
        "row_m": 15
      },
      "geometry": {
        "type": "LineString",
        "coordinates": [
          [
            5.62,
            6.335
          ],
          [
            5.2,
            6.8
          ],
          [
            4.8,
            7.3
          ],
          [
            4.542,
            7.785
          ]
        ]
      }
    },
    {
      "type": "Feature",
      "properties": {
        "id": "TL-015",
        "name": "Benin - Onitsha 330kV",
        "voltage": "330kV",
        "operator": "TCN",
        "row_m": 15
      },
      "geometry": {
        "type": "LineString",
        "coordinates": [
          [
            5.62,
            6.335
          ],
          [
            5.95,
            6.25
          ],
          [
            6.3,
            6.2
          ],
          [
            6.783,
            6.133
          ]
        ]
      }
    },
    {
      "type": "Feature",
      "properties": {
        "id": "TL-016",
        "name": "Onitsha - Alaoji 330kV",
        "voltage": "330kV",
        "operator": "TCN",
        "row_m": 15
      },
      "geometry": {
        "type": "LineString",
        "coordinates": [
          [
            6.783,
            6.133
          ],
          [
            7.0,
            5.75
          ],
          [
            7.2,
            5.4
          ],
          [
            7.35,
            5.08
          ]
        ]
      }
    },
    {
      "type": "Feature",
      "properties": {
        "id": "TL-017",
        "name": "Alaoji - Afam 330kV",
        "voltage": "330kV",
        "operator": "TCN",
        "row_m": 15
      },
      "geometry": {
        "type": "LineString",
        "coordinates": [
          [
            7.35,
            5.08
          ],
          [
            7.3,
            4.95
          ],
          [
            7.25,
            4.85
          ]
        ]
      }
    },
    {
      "type": "Feature",
      "properties": {
        "id": "TL-018",
        "name": "Alaoji - Ikot Ekpene - Calabar 330kV",
        "voltage": "330kV",
        "operator": "TCN",
        "row_m": 15
      },
      "geometry": {
        "type": "LineString",
        "coordinates": [
          [
            7.35,
            5.08
          ],
          [
            7.5,
            5.12
          ],
          [
            7.71,
            5.18
          ],
          [
            8.05,
            5.08
          ],
          [
            8.342,
            4.975
          ]
        ]
      }
    },
    {
      "type": "Feature",
      "properties": {
        "id": "TL-019",
        "name": "Ikot Ekpene - Ugwuaji (Enugu) 330kV",
        "voltage": "330kV",
        "operator": "TCN",
        "row_m": 15
      },
      "geometry": {
        "type": "LineString",
        "coordinates": [
          [
            7.71,
            5.18
          ],
          [
            7.65,
            5.6
          ],
          [
            7.58,
            6.0
          ],
          [
            7.517,
            6.417
          ]
        ]
      }
    },
    {
      "type": "Feature",
      "properties": {
        "id": "TL-020",
        "name": "Enugu - Makurdi - Jos 330kV",
        "voltage": "330kV",
        "operator": "TCN",
        "row_m": 15
      },
      "geometry": {
        "type": "LineString",
        "coordinates": [
          [
            7.517,
            6.417
          ],
          [
            8.0,
            7.05
          ],
          [
            8.533,
            7.733
          ],
          [
            8.7,
            8.8
          ],
          [
            8.858,
            9.897
          ]
        ]
      }
    }
  ]
}